{
  "type": "FeatureCollection",
  "name": "the fixture's designed coastline",
  "crs": {
    "type": "name",
    "properties": {
      "name": "urn:ogc:def:crs:EPSG::32610"
    }
  },
  "features": [
    {
      "type": "Feature",
      "properties": {
        "name": "Shore 0"
      },
      "geometry": {
        "type": "Polygon",
        "coordinates": [
          [
            [
              492000.0,
              5468020.0,
              0.0
            ],
            [
              492300.0,
              5468080.0,
              0.0
            ],
            [
              492600.0,
              5468000.0,
              0.0
            ],
            [
              492900.0,
              5468070.0,
              0.0
            ],
            [
              493200.0,
              5467980.0,
              0.0
            ],
            [
              493260.0,
              5467680.0,
              0.0
            ],
            [
              493200.0,
              5467400.0,
              0.0
            ],
            [
              493280.0,
              5467100.0,
              0.0
            ],
            [
              493180.0,
              5466820.0,
              0.0
            ],
            [
              492880.0,
              5466740.0,
              0.0
            ],
            [
              492600.0,
              5466820.0,
              0.0
            ],
            [
              492340.0,
              5466730.0,
              0.0
            ],
            [
              492040.0,
              5466780.0,
              0.0
            ],
            [
              491940.0,
              5467100.0,
              0.0
            ],
            [
              492020.0,
              5467400.0,
              0.0
            ],
            [
              491920.0,
              5467700.0,
              0.0
            ],
            [
              492000.0,
              5468020.0,
              0.0
            ]
          ]
        ]
      }
    }
  ]
}
