{
  "crs": {
    "properties": {
      "name": "urn:ogc:def:crs:EPSG::32610"
    },
    "type": "name"
  },
  "features": [
    {
      "geometry": {
        "coordinates": [
          [
            492736.0,
            5467808.0,
            198.96421813964844
          ],
          [
            492728.0,
            5467792.0,
            197.81808471679688
          ],
          [
            492720.0,
            5467776.0,
            196.59567260742188
          ],
          [
            492720.0,
            5467760.0,
            195.2270965576172
          ],
          [
            492720.0,
            5467744.0,
            194.0026092529297
          ],
          [
            492720.0,
            5467728.0,
            192.57342529296875
          ],
          [
            492720.0,
            5467712.0,
            191.94186401367188
          ],
          [
            492728.0,
            5467712.0,
            191.9221954345703
          ]
        ],
        "type": "LineString"
      },
      "properties": {
        "catchment_m2": 86400.0,
        "depth_m": 0.35,
        "fall_m": 7.042022705078125,
        "flow_m_s": 0.5306775467639337,
        "name": "Reach 0",
        "width_m": 1.5
      },
      "type": "Feature"
    },
    {
      "geometry": {
        "coordinates": [
          [
            492840.0,
            5467744.0,
            203.5491485595703
          ],
          [
            492832.0,
            5467728.0,
            202.41990661621094
          ],
          [
            492816.0,
            5467712.0,
            201.0030059814453
          ],
          [
            492800.0,
            5467696.0,
            198.81015014648438
          ],
          [
            492784.0,
            5467680.0,
            196.8022918701172
          ],
          [
            492768.0,
            5467664.0,
            192.6542510986328
          ],
          [
            492760.0,
            5467648.0,
            190.48196411132812
          ],
          [
            492760.0,
            5467632.0,
            189.28306579589844
          ],
          [
            492760.0,
            5467616.0,
            188.0615234375
          ],
          [
            492752.0,
            5467600.0,
            187.3705596923828
          ],
          [
            492752.0,
            5467584.0,
            186.72251892089844
          ],
          [
            492752.0,
            5467568.0,
            185.5310821533203
          ],
          [
            492752.0,
            5467552.0,
            184.2849884033203
          ],
          [
            492752.0,
            5467536.0,
            183.37229919433594
          ],
          [
            492752.0,
            5467520.0,
            182.41162109375
          ],
          [
            492752.0,
            5467504.0,
            182.03732299804688
          ]
        ],
        "type": "LineString"
      },
      "properties": {
        "catchment_m2": 69312.0,
        "depth_m": 0.35,
        "fall_m": 21.511825561523438,
        "flow_m_s": 0.558073312345724,
        "name": "Reach 1",
        "width_m": 1.5
      },
      "type": "Feature"
    },
    {
      "geometry": {
        "coordinates": [
          [
            492824.0,
            5467560.0,
            188.19842529296875
          ],
          [
            492808.0,
            5467544.0,
            187.12612915039062
          ],
          [
            492800.0,
            5467528.0,
            186.370849609375
          ],
          [
            492800.0,
            5467512.0,
            185.6017608642578
          ],
          [
            492800.0,
            5467496.0,
            184.23486328125
          ],
          [
            492800.0,
            5467480.0,
            182.3196258544922
          ],
          [
            492800.0,
            5467464.0,
            180.6876220703125
          ],
          [
            492808.0,
            5467448.0,
            180.2127685546875
          ],
          [
            492824.0,
            5467440.0,
            179.30320739746094
          ]
        ],
        "type": "LineString"
      },
      "properties": {
        "catchment_m2": 75712.0,
        "depth_m": 0.35,
        "fall_m": 8.895217895507812,
        "flow_m_s": 0.5268091041328118,
        "name": "Reach 2",
        "width_m": 1.5
      },
      "type": "Feature"
    },
    {
      "geometry": {
        "coordinates": [
          [
            492440.0,
            5467544.0,
            176.73060607910156
          ],
          [
            492432.0,
            5467528.0,
            175.59213256835938
          ],
          [
            492416.0,
            5467512.0,
            173.10714721679688
          ],
          [
            492408.0,
            5467496.0,
            171.80181884765625
          ],
          [
            492392.0,
            5467480.0,
            169.42041015625
          ],
          [
            492376.0,
            5467464.0,
            166.1160430908203
          ],
          [
            492360.0,
            5467448.0,
            165.08802795410156
          ],
          [
            492344.0,
            5467432.0,
            164.57260131835938
          ],
          [
            492328.0,
            5467432.0,
            164.3298797607422
          ]
        ],
        "type": "LineString"
      },
      "properties": {
        "catchment_m2": 95040.0,
        "depth_m": 0.35,
        "fall_m": 12.400726318359375,
        "flow_m_s": 0.5503900619408042,
        "name": "Reach 3",
        "width_m": 1.5
      },
      "type": "Feature"
    },
    {
      "geometry": {
        "coordinates": [
          [
            492872.0,
            5467416.0,
            178.05853271484375
          ],
          [
            492872.0,
            5467400.0,
            177.2826690673828
          ],
          [
            492872.0,
            5467384.0,
            176.81390380859375
          ],
          [
            492872.0,
            5467368.0,
            176.37905883789062
          ],
          [
            492872.0,
            5467352.0,
            176.02938842773438
          ],
          [
            492880.0,
            5467336.0,
            175.58116149902344
          ],
          [
            492888.0,
            5467320.0,
            174.5950164794922
          ],
          [
            492888.0,
            5467304.0,
            174.32974243164062
          ],
          [
            492888.0,
            5467288.0,
            173.85409545898438
          ],
          [
            492896.0,
            5467272.0,
            172.7678680419922
          ],
          [
            492896.0,
            5467256.0,
            171.78102111816406
          ],
          [
            492896.0,
            5467240.0,
            170.74595642089844
          ],
          [
            492896.0,
            5467224.0,
            169.45309448242188
          ],
          [
            492888.0,
            5467208.0,
            168.46173095703125
          ],
          [
            492888.0,
            5467192.0,
            167.8578338623047
          ],
          [
            492888.0,
            5467184.0,
            167.72366333007812
          ]
        ],
        "type": "LineString"
      },
      "properties": {
        "catchment_m2": 130560.0,
        "depth_m": 0.35,
        "fall_m": 10.334869384765625,
        "flow_m_s": 0.48628419331607253,
        "name": "Reach 4",
        "width_m": 1.5
      },
      "type": "Feature"
    },
    {
      "geometry": {
        "coordinates": [
          [
            492520.0,
            5467352.0,
            164.95547485351562
          ],
          [
            492504.0,
            5467352.0,
            164.16619873046875
          ],
          [
            492488.0,
            5467352.0,
            164.0081787109375
          ],
          [
            492472.0,
            5467352.0,
            163.82760620117188
          ],
          [
            492456.0,
            5467360.0,
            163.54371643066406
          ],
          [
            492440.0,
            5467368.0,
            163.38583374023438
          ],
          [
            492424.0,
            5467368.0,
            163.03565979003906
          ]
        ],
        "type": "LineString"
      },
      "properties": {
        "catchment_m2": 51904.0,
        "depth_m": 0.35,
        "fall_m": 1.9198150634765625,
        "flow_m_s": 0.43848208258800664,
        "name": "Reach 5",
        "width_m": 1.5
      },
      "type": "Feature"
    },
    {
      "geometry": {
        "coordinates": [
          [
            492912.0,
            5467328.0,
            177.75180053710938
          ],
          [
            492896.0,
            5467320.0,
            175.1755828857422
          ],
          [
            492888.0,
            5467320.0,
            174.5950164794922
          ]
        ],
        "type": "LineString"
      },
      "properties": {
        "catchment_m2": 103744.0,
        "depth_m": 0.35,
        "fall_m": 3.1567840576171875,
        "flow_m_s": 0.6438749803439036,
        "name": "Reach 6",
        "width_m": 1.5
      },
      "type": "Feature"
    },
    {
      "geometry": {
        "coordinates": [
          [
            492752.0,
            5467056.0,
            156.5659637451172
          ],
          [
            492744.0,
            5467040.0,
            155.5718231201172
          ],
          [
            492736.0,
            5467024.0,
            154.12945556640625
          ],
          [
            492736.0,
            5467008.0,
            153.6350555419922
          ],
          [
            492736.0,
            5466992.0,
            153.4208984375
          ],
          [
            492736.0,
            5466976.0,
            152.80322265625
          ],
          [
            492736.0,
            5466960.0,
            152.16055297851562
          ],
          [
            492736.0,
            5466944.0,
            151.5157012939453
          ],
          [
            492736.0,
            5466928.0,
            150.5445098876953
          ],
          [
            492736.0,
            5466912.0,
            149.3407745361328
          ],
          [
            492736.0,
            5466896.0,
            148.75486755371094
          ]
        ],
        "type": "LineString"
      },
      "properties": {
        "catchment_m2": 62400.0,
        "depth_m": 0.35,
        "fall_m": 7.81109619140625,
        "flow_m_s": 0.49538692260270323,
        "name": "Reach 7",
        "width_m": 1.5
      },
      "type": "Feature"
    },
    {
      "geometry": {
        "coordinates": [
          [
            492872.0,
            5466920.0,
            154.343505859375
          ],
          [
            492856.0,
            5466904.0,
            152.1407470703125
          ],
          [
            492840.0,
            5466896.0,
            151.25030517578125
          ]
        ],
        "type": "LineString"
      },
      "properties": {
        "catchment_m2": 35904.0,
        "depth_m": 0.35,
        "fall_m": 3.09320068359375,
        "flow_m_s": 0.5526904765996314,
        "name": "Reach 8",
        "width_m": 1.5
      },
      "type": "Feature"
    }
  ],
  "name": "streams derived from flow accumulation over the carved ground",
  "type": "FeatureCollection"
}
