{
  "type": "FeatureCollection",
  "name": "biome design masks - where the author overrides the classifier",
  "crs": {
    "type": "name",
    "properties": {
      "name": "urn:ogc:def:crs:EPSG::32610"
    }
  },
  "features": [
    {
      "type": "Feature",
      "properties": {
        "biome": "farmland"
      },
      "geometry": {
        "type": "Polygon",
        "coordinates": [
          [
            [
              491530.0,
              5464480.0,
              0.0
            ],
            [
              492770.0,
              5464480.0,
              0.0
            ],
            [
              492770.0,
              5463720.0,
              0.0
            ],
            [
              491530.0,
              5463720.0,
              0.0
            ],
            [
              491530.0,
              5464480.0,
              0.0
            ]
          ]
        ]
      }
    },
    {
      "type": "Feature",
      "properties": {
        "biome": "farmland"
      },
      "geometry": {
        "type": "Polygon",
        "coordinates": [
          [
            [
              493580.0,
              5465240.0,
              0.0
            ],
            [
              494620.0,
              5465240.0,
              0.0
            ],
            [
              494620.0,
              5464560.0,
              0.0
            ],
            [
              493580.0,
              5464560.0,
              0.0
            ],
            [
              493580.0,
              5465240.0,
              0.0
            ]
          ]
        ]
      }
    },
    {
      "type": "Feature",
      "properties": {
        "biome": "farmland"
      },
      "geometry": {
        "type": "Polygon",
        "coordinates": [
          [
            [
              489770.0,
              5464670.0,
              0.0
            ],
            [
              490530.0,
              5464670.0,
              0.0
            ],
            [
              490530.0,
              5463830.0,
              0.0
            ],
            [
              489770.0,
              5463830.0,
              0.0
            ],
            [
              489770.0,
              5464670.0,
              0.0
            ]
          ]
        ]
      }
    },
    {
      "type": "Feature",
      "properties": {
        "biome": "farmland"
      },
      "geometry": {
        "type": "Polygon",
        "coordinates": [
          [
            [
              494530.0,
              5463700.0,
              0.0
            ],
            [
              495370.0,
              5463700.0,
              0.0
            ],
            [
              495370.0,
              5463100.0,
              0.0
            ],
            [
              494530.0,
              5463100.0,
              0.0
            ],
            [
              494530.0,
              5463700.0,
              0.0
            ]
          ]
        ]
      }
    },
    {
      "type": "Feature",
      "properties": {
        "biome": "meadow"
      },
      "geometry": {
        "type": "Polygon",
        "coordinates": [
          [
            [
              492050.0,
              5465750.0,
              0.0
            ],
            [
              493450.0,
              5465750.0,
              0.0
            ],
            [
              493450.0,
              5464850.0,
              0.0
            ],
            [
              492050.0,
              5464850.0,
              0.0
            ],
            [
              492050.0,
              5465750.0,
              0.0
            ]
          ]
        ]
      }
    },
    {
      "type": "Feature",
      "properties": {
        "biome": "meadow"
      },
      "geometry": {
        "type": "Polygon",
        "coordinates": [
          [
            [
              490250.0,
              5467000.0,
              0.0
            ],
            [
              491450.0,
              5467000.0,
              0.0
            ],
            [
              491450.0,
              5466000.0,
              0.0
            ],
            [
              490250.0,
              5466000.0,
              0.0
            ],
            [
              490250.0,
              5467000.0,
              0.0
            ]
          ]
        ]
      }
    }
  ]
}
