{
  "type": "FeatureCollection",
  "name": "the designed coastline - the polygon that makes this an island",
  "crs": {
    "type": "name",
    "properties": {
      "name": "urn:ogc:def:crs:EPSG::32610"
    }
  },
  "features": [
    {
      "type": "Feature",
      "properties": {
        "name": "Shore 0"
      },
      "geometry": {
        "type": "Polygon",
        "coordinates": [
          [
            [
              489650.0,
              5468750.0,
              0.0
            ],
            [
              490200.0,
              5468900.0,
              0.0
            ],
            [
              490900.0,
              5468850.0,
              0.0
            ],
            [
              491550.0,
              5468980.0,
              0.0
            ],
            [
              492250.0,
              5468900.0,
              0.0
            ],
            [
              492900.0,
              5469000.0,
              0.0
            ],
            [
              493550.0,
              5468880.0,
              0.0
            ],
            [
              494200.0,
              5468950.0,
              0.0
            ],
            [
              494850.0,
              5468800.0,
              0.0
            ],
            [
              495400.0,
              5468920.0,
              0.0
            ],
            [
              495750.0,
              5468650.0,
              0.0
            ],
            [
              495900.0,
              5468000.0,
              0.0
            ],
            [
              495800.0,
              5467300.0,
              0.0
            ],
            [
              495950.0,
              5466600.0,
              0.0
            ],
            [
              495830.0,
              5465900.0,
              0.0
            ],
            [
              495920.0,
              5465200.0,
              0.0
            ],
            [
              495780.0,
              5464500.0,
              0.0
            ],
            [
              495900.0,
              5463850.0,
              0.0
            ],
            [
              495650.0,
              5463350.0,
              0.0
            ],
            [
              495500.0,
              5462900.0,
              0.0
            ],
            [
              495100.0,
              5462550.0,
              0.0
            ],
            [
              494600.0,
              5462700.0,
              0.0
            ],
            [
              494100.0,
              5462400.0,
              0.0
            ],
            [
              493550.0,
              5462500.0,
              0.0
            ],
            [
              493000.0,
              5462300.0,
              0.0
            ],
            [
              492450.0,
              5462450.0,
              0.0
            ],
            [
              491900.0,
              5462280.0,
              0.0
            ],
            [
              491450.0,
              5462600.0,
              0.0
            ],
            [
              491150.0,
              5462820.0,
              0.0
            ],
            [
              490850.0,
              5462900.0,
              0.0
            ],
            [
              490550.0,
              5462800.0,
              0.0
            ],
            [
              490250.0,
              5462550.0,
              0.0
            ],
            [
              489850.0,
              5462400.0,
              0.0
            ],
            [
              489550.0,
              5462650.0,
              0.0
            ],
            [
              489350.0,
              5463300.0,
              0.0
            ],
            [
              489450.0,
              5464000.0,
              0.0
            ],
            [
              489280.0,
              5464700.0,
              0.0
            ],
            [
              489400.0,
              5465400.0,
              0.0
            ],
            [
              489270.0,
              5466100.0,
              0.0
            ],
            [
              489420.0,
              5466800.0,
              0.0
            ],
            [
              489300.0,
              5467500.0,
              0.0
            ],
            [
              489450.0,
              5468150.0,
              0.0
            ],
            [
              489550.0,
              5468500.0,
              0.0
            ],
            [
              489650.0,
              5468750.0,
              0.0
            ]
          ]
        ]
      }
    }
  ]
}
