{
  "crs": {
    "properties": {
      "name": "urn:ogc:def:crs:EPSG::32610"
    },
    "type": "name"
  },
  "features": [
    {
      "geometry": {
        "coordinates": [
          [
            [
              491528.0,
              5466888.0,
              55.356868743896484
            ],
            [
              491840.0,
              5466888.0,
              55.356868743896484
            ],
            [
              491840.0,
              5466168.0,
              55.356868743896484
            ],
            [
              491528.0,
              5466168.0,
              55.356868743896484
            ],
            [
              491528.0,
              5466888.0,
              55.356868743896484
            ]
          ]
        ],
        "type": "Polygon"
      },
      "properties": {
        "area_m2": 68032.0,
        "half_x_m": 156.0,
        "half_z_m": 360.0,
        "level_m": 55.356868743896484,
        "max_depth_m": 11.79305648803711,
        "name": "Lake 0"
      },
      "type": "Feature"
    },
    {
      "geometry": {
        "coordinates": [
          [
            [
              492296.0,
              5466600.0,
              151.18218994140625
            ],
            [
              492360.0,
              5466600.0,
              151.18218994140625
            ],
            [
              492360.0,
              5466536.0,
              151.18218994140625
            ],
            [
              492296.0,
              5466536.0,
              151.18218994140625
            ],
            [
              492296.0,
              5466600.0,
              151.18218994140625
            ]
          ]
        ],
        "type": "Polygon"
      },
      "properties": {
        "area_m2": 2752.0,
        "half_x_m": 32.0,
        "half_z_m": 32.0,
        "level_m": 151.18218994140625,
        "max_depth_m": 2.1044464111328125,
        "name": "Lake 1"
      },
      "type": "Feature"
    }
  ],
  "name": "lakes derived from the depression fill",
  "type": "FeatureCollection"
}
