{
  "crs": {
    "properties": {
      "name": "urn:ogc:def:crs:EPSG::32610"
    },
    "type": "name"
  },
  "features": [
    {
      "geometry": {
        "coordinates": [
          [
            492624.0,
            5468592.0,
            249.36666870117188
          ],
          [
            492608.0,
            5468560.0,
            238.7835235595703
          ],
          [
            492592.0,
            5468528.0,
            227.60711669921875
          ],
          [
            492560.0,
            5468496.0,
            212.63369750976562
          ],
          [
            492536.0,
            5468464.0,
            204.76243591308594
          ],
          [
            492512.0,
            5468432.0,
            197.39674377441406
          ],
          [
            492480.0,
            5468400.0,
            188.91575622558594
          ],
          [
            492464.0,
            5468368.0,
            184.7587890625
          ],
          [
            492448.0,
            5468336.0,
            175.5723419189453
          ],
          [
            492432.0,
            5468304.0,
            171.7813262939453
          ],
          [
            492400.0,
            5468272.0,
            159.73590087890625
          ],
          [
            492376.0,
            5468240.0,
            154.2360382080078
          ],
          [
            492344.0,
            5468208.0,
            146.93003845214844
          ],
          [
            492344.0,
            5468200.0,
            146.19921875
          ]
        ],
        "type": "LineString"
      },
      "properties": {
        "catchment_m2": 322368.0,
        "depth_m": 0.35,
        "fall_m": 103.16744995117188,
        "flow_m_s": 0.8228999403572967,
        "name": "Reach 0",
        "width_m": 1.5
      },
      "type": "Feature"
    },
    {
      "geometry": {
        "coordinates": [
          [
            495040.0,
            5468560.0,
            660.9890747070312
          ],
          [
            495016.0,
            5468528.0,
            659.6196899414062
          ],
          [
            495008.0,
            5468496.0,
            653.5922241210938
          ],
          [
            495000.0,
            5468464.0,
            647.9310302734375
          ],
          [
            494992.0,
            5468432.0,
            643.6106567382812
          ],
          [
            494976.0,
            5468400.0,
            638.4050903320312
          ],
          [
            494968.0,
            5468368.0,
            632.9931030273438
          ],
          [
            494968.0,
            5468336.0,
            625.169677734375
          ],
          [
            494952.0,
            5468304.0,
            622.0089721679688
          ],
          [
            494936.0,
            5468272.0,
            616.1919555664062
          ],
          [
            494920.0,
            5468240.0,
            609.4224853515625
          ],
          [
            494912.0,
            5468208.0,
            604.1001586914062
          ],
          [
            494896.0,
            5468176.0,
            599.53857421875
          ],
          [
            494888.0,
            5468144.0,
            597.0320434570312
          ],
          [
            494872.0,
            5468112.0,
            588.1967163085938
          ],
          [
            494840.0,
            5468080.0,
            577.9092407226562
          ],
          [
            494816.0,
            5468048.0,
            571.0630493164062
          ],
          [
            494784.0,
            5468016.0,
            561.0777587890625
          ],
          [
            494784.0,
            5467984.0,
            555.8814697265625
          ],
          [
            494776.0,
            5467952.0,
            552.7535400390625
          ],
          [
            494760.0,
            5467920.0,
            546.9667358398438
          ],
          [
            494752.0,
            5467888.0,
            538.0902099609375
          ],
          [
            494744.0,
            5467856.0,
            534.0645141601562
          ],
          [
            494744.0,
            5467824.0,
            525.88720703125
          ],
          [
            494760.0,
            5467792.0,
            518.055908203125
          ],
          [
            494776.0,
            5467760.0,
            507.45703125
          ],
          [
            494776.0,
            5467728.0,
            500.597412109375
          ],
          [
            494752.0,
            5467696.0,
            489.24029541015625
          ],
          [
            494736.0,
            5467664.0,
            477.9401550292969
          ],
          [
            494736.0,
            5467632.0,
            470.8792419433594
          ],
          [
            494720.0,
            5467600.0,
            465.75244140625
          ],
          [
            494688.0,
            5467568.0,
            456.8946533203125
          ],
          [
            494656.0,
            5467536.0,
            447.72833251953125
          ],
          [
            494624.0,
            5467504.0,
            437.5074768066406
          ],
          [
            494600.0,
            5467472.0,
            431.9138488769531
          ],
          [
            494584.0,
            5467440.0,
            425.21771240234375
          ],
          [
            494568.0,
            5467408.0,
            418.2303161621094
          ],
          [
            494536.0,
            5467376.0,
            411.7691650390625
          ],
          [
            494504.0,
            5467360.0,
            404.127197265625
          ],
          [
            494472.0,
            5467344.0,
            389.1658935546875
          ],
          [
            494440.0,
            5467328.0,
            381.00408935546875
          ],
          [
            494408.0,
            5467304.0,
            368.38934326171875
          ],
          [
            494392.0,
            5467272.0,
            357.2568664550781
          ],
          [
            494360.0,
            5467240.0,
            351.7278747558594
          ],
          [
            494344.0,
            5467208.0,
            344.5736999511719
          ],
          [
            494312.0,
            5467184.0,
            340.8548278808594
          ],
          [
            494280.0,
            5467160.0,
            335.353515625
          ],
          [
            494248.0,
            5467128.0,
            326.0389709472656
          ],
          [
            494216.0,
            5467104.0,
            315.8564758300781
          ],
          [
            494192.0,
            5467072.0,
            305.55853271484375
          ],
          [
            494184.0,
            5467040.0,
            298.8973083496094
          ],
          [
            494168.0,
            5467008.0,
            294.50006103515625
          ],
          [
            494144.0,
            5466976.0,
            288.8927917480469
          ],
          [
            494120.0,
            5466944.0,
            282.9162902832031
          ],
          [
            494088.0,
            5466920.0,
            273.5343322753906
          ],
          [
            494056.0,
            5466896.0,
            266.6076965332031
          ],
          [
            494024.0,
            5466864.0,
            260.0621032714844
          ],
          [
            493992.0,
            5466856.0,
            254.01065063476562
          ],
          [
            493960.0,
            5466824.0,
            247.9422149658203
          ],
          [
            493936.0,
            5466792.0,
            243.00880432128906
          ],
          [
            493912.0,
            5466760.0,
            238.12838745117188
          ],
          [
            493896.0,
            5466728.0,
            235.44129943847656
          ],
          [
            493880.0,
            5466696.0,
            230.6292266845703
          ],
          [
            493848.0,
            5466664.0,
            223.47222900390625
          ],
          [
            493832.0,
            5466632.0,
            218.0724334716797
          ],
          [
            493816.0,
            5466600.0,
            215.9009552001953
          ],
          [
            493784.0,
            5466568.0,
            211.76101684570312
          ],
          [
            493752.0,
            5466536.0,
            205.94580078125
          ],
          [
            493736.0,
            5466504.0,
            202.24977111816406
          ],
          [
            493720.0,
            5466472.0,
            200.86666870117188
          ],
          [
            493720.0,
            5466440.0,
            197.86871337890625
          ],
          [
            493720.0,
            5466408.0,
            194.0413055419922
          ],
          [
            493720.0,
            5466376.0,
            192.68817138671875
          ],
          [
            493712.0,
            5466344.0,
            190.6735076904297
          ],
          [
            493712.0,
            5466312.0,
            185.58816528320312
          ],
          [
            493704.0,
            5466280.0,
            183.13461303710938
          ],
          [
            493696.0,
            5466248.0,
            180.91094970703125
          ],
          [
            493688.0,
            5466216.0,
            178.86306762695312
          ],
          [
            493688.0,
            5466184.0,
            175.80213928222656
          ],
          [
            493688.0,
            5466152.0,
            174.46664428710938
          ],
          [
            493688.0,
            5466120.0,
            171.72393798828125
          ],
          [
            493688.0,
            5466088.0,
            169.14431762695312
          ],
          [
            493688.0,
            5466056.0,
            166.51463317871094
          ],
          [
            493672.0,
            5466024.0,
            163.65481567382812
          ],
          [
            493672.0,
            5465992.0,
            163.12196350097656
          ],
          [
            493672.0,
            5465960.0,
            160.9137725830078
          ],
          [
            493672.0,
            5465928.0,
            157.2679443359375
          ],
          [
            493664.0,
            5465896.0,
            154.87249755859375
          ],
          [
            493640.0,
            5465864.0,
            151.82102966308594
          ],
          [
            493624.0,
            5465832.0,
            149.95494079589844
          ],
          [
            493600.0,
            5465800.0,
            147.06625366210938
          ],
          [
            493592.0,
            5465768.0,
            144.40658569335938
          ],
          [
            493576.0,
            5465736.0,
            141.7182159423828
          ],
          [
            493568.0,
            5465704.0,
            139.80264282226562
          ],
          [
            493560.0,
            5465672.0,
            137.88275146484375
          ],
          [
            493552.0,
            5465640.0,
            135.0984344482422
          ],
          [
            493528.0,
            5465608.0,
            130.70033264160156
          ],
          [
            493520.0,
            5465592.0,
            129.04457092285156
          ]
        ],
        "type": "LineString"
      },
      "properties": {
        "catchment_m2": 2421248.0,
        "depth_m": 0.5601729561483667,
        "fall_m": 531.9445037841797,
        "flow_m_s": 0.70124360490166,
        "name": "Reach 1",
        "width_m": 3.1120719786020374
      },
      "type": "Feature"
    },
    {
      "geometry": {
        "coordinates": [
          [
            493960.0,
            5468464.0,
            646.5535888671875
          ],
          [
            493944.0,
            5468432.0,
            633.6094970703125
          ],
          [
            493928.0,
            5468400.0,
            611.01708984375
          ],
          [
            493904.0,
            5468368.0,
            585.3838500976562
          ],
          [
            493888.0,
            5468336.0,
            567.0491333007812
          ],
          [
            493872.0,
            5468304.0,
            550.402099609375
          ],
          [
            493856.0,
            5468272.0,
            525.8466186523438
          ],
          [
            493832.0,
            5468240.0,
            500.31976318359375
          ],
          [
            493808.0,
            5468208.0,
            483.3302917480469
          ],
          [
            493784.0,
            5468176.0,
            461.1545104980469
          ],
          [
            493768.0,
            5468144.0,
            441.5719909667969
          ],
          [
            493752.0,
            5468112.0,
            430.1190490722656
          ],
          [
            493736.0,
            5468080.0,
            420.33282470703125
          ],
          [
            493728.0,
            5468048.0,
            409.7017517089844
          ],
          [
            493720.0,
            5468016.0,
            396.9023132324219
          ],
          [
            493704.0,
            5467984.0,
            384.6267395019531
          ],
          [
            493688.0,
            5467952.0,
            374.84051513671875
          ],
          [
            493656.0,
            5467920.0,
            359.77435302734375
          ],
          [
            493640.0,
            5467888.0,
            348.9988098144531
          ],
          [
            493624.0,
            5467856.0,
            334.12713623046875
          ],
          [
            493600.0,
            5467824.0,
            319.06805419921875
          ],
          [
            493592.0,
            5467792.0,
            312.7220764160156
          ],
          [
            493576.0,
            5467760.0,
            305.2917175292969
          ],
          [
            493560.0,
            5467728.0,
            298.04998779296875
          ],
          [
            493544.0,
            5467696.0,
            286.67218017578125
          ],
          [
            493512.0,
            5467664.0,
            277.9536437988281
          ],
          [
            493480.0,
            5467656.0,
            267.61114501953125
          ],
          [
            493456.0,
            5467624.0,
            261.4818420410156
          ],
          [
            493456.0,
            5467592.0,
            258.37860107421875
          ],
          [
            493432.0,
            5467560.0,
            252.1622772216797
          ],
          [
            493408.0,
            5467528.0,
            244.565673828125
          ],
          [
            493384.0,
            5467496.0,
            238.32994079589844
          ],
          [
            493368.0,
            5467464.0,
            231.7129669189453
          ],
          [
            493344.0,
            5467432.0,
            225.93031311035156
          ],
          [
            493312.0,
            5467432.0,
            221.73170471191406
          ],
          [
            493288.0,
            5467416.0,
            219.02352905273438
          ],
          [
            493264.0,
            5467384.0,
            216.21942138671875
          ],
          [
            493232.0,
            5467368.0,
            210.59288024902344
          ],
          [
            493200.0,
            5467368.0,
            206.32652282714844
          ],
          [
            493168.0,
            5467360.0,
            201.722412109375
          ],
          [
            493136.0,
            5467360.0,
            197.55935668945312
          ],
          [
            493104.0,
            5467328.0,
            191.7108154296875
          ],
          [
            493072.0,
            5467296.0,
            187.375244140625
          ],
          [
            493040.0,
            5467264.0,
            183.65997314453125
          ],
          [
            493008.0,
            5467240.0,
            181.6568603515625
          ],
          [
            492976.0,
            5467208.0,
            178.08409118652344
          ],
          [
            492944.0,
            5467184.0,
            175.04750061035156
          ],
          [
            492912.0,
            5467168.0,
            171.3656005859375
          ],
          [
            492880.0,
            5467176.0,
            167.29592895507812
          ]
        ],
        "type": "LineString"
      },
      "properties": {
        "catchment_m2": 646528.0,
        "depth_m": 0.35,
        "fall_m": 479.2576599121094,
        "flow_m_s": 0.9354026413749799,
        "name": "Reach 2",
        "width_m": 1.6081392974490736
      },
      "type": "Feature"
    },
    {
      "geometry": {
        "coordinates": [
          [
            493088.0,
            5468408.0,
            283.0225524902344
          ],
          [
            493064.0,
            5468376.0,
            277.0938720703125
          ],
          [
            493056.0,
            5468344.0,
            271.0624694824219
          ],
          [
            493040.0,
            5468312.0,
            262.1929016113281
          ],
          [
            493008.0,
            5468288.0,
            255.2965850830078
          ],
          [
            492984.0,
            5468256.0,
            250.106689453125
          ],
          [
            492976.0,
            5468224.0,
            246.9398651123047
          ],
          [
            492968.0,
            5468192.0,
            243.67056274414062
          ],
          [
            492944.0,
            5468160.0,
            238.03285217285156
          ],
          [
            492928.0,
            5468128.0,
            232.74769592285156
          ],
          [
            492912.0,
            5468096.0,
            230.12066650390625
          ],
          [
            492888.0,
            5468064.0,
            228.9352569580078
          ],
          [
            492872.0,
            5468032.0,
            223.55726623535156
          ],
          [
            492840.0,
            5468016.0,
            221.1588897705078
          ],
          [
            492824.0,
            5467984.0,
            218.74783325195312
          ],
          [
            492808.0,
            5467952.0,
            214.89427185058594
          ],
          [
            492792.0,
            5467920.0,
            210.50393676757812
          ],
          [
            492768.0,
            5467888.0,
            206.5905303955078
          ],
          [
            492744.0,
            5467856.0,
            202.61778259277344
          ],
          [
            492736.0,
            5467824.0,
            199.85684204101562
          ],
          [
            492728.0,
            5467792.0,
            197.74229431152344
          ],
          [
            492720.0,
            5467760.0,
            195.17164611816406
          ],
          [
            492720.0,
            5467728.0,
            192.46929931640625
          ],
          [
            492720.0,
            5467712.0,
            191.7576446533203
          ]
        ],
        "type": "LineString"
      },
      "properties": {
        "catchment_m2": 586560.0,
        "depth_m": 0.35,
        "fall_m": 91.26490783691406,
        "flow_m_s": 0.6247556008664082,
        "name": "Reach 3",
        "width_m": 1.5317441039547042
      },
      "type": "Feature"
    },
    {
      "geometry": {
        "coordinates": [
          [
            491224.0,
            5468384.0,
            232.50253295898438
          ],
          [
            491256.0,
            5468384.0,
            221.8596954345703
          ],
          [
            491288.0,
            5468384.0,
            214.75633239746094
          ],
          [
            491320.0,
            5468384.0,
            201.9058380126953
          ],
          [
            491352.0,
            5468384.0,
            185.08384704589844
          ],
          [
            491384.0,
            5468392.0,
            168.92437744140625
          ],
          [
            491416.0,
            5468400.0,
            156.78668212890625
          ],
          [
            491448.0,
            5468416.0,
            147.22203063964844
          ],
          [
            491464.0,
            5468416.0,
            146.19921875
          ]
        ],
        "type": "LineString"
      },
      "properties": {
        "catchment_m2": 168832.0,
        "depth_m": 0.35,
        "fall_m": 86.30331420898438,
        "flow_m_s": 1.1023759581657067,
        "name": "Reach 4",
        "width_m": 1.5
      },
      "type": "Feature"
    },
    {
      "geometry": {
        "coordinates": [
          [
            490464.0,
            5468176.0,
            396.8160400390625
          ],
          [
            490496.0,
            5468176.0,
            391.7657470703125
          ],
          [
            490528.0,
            5468184.0,
            385.7818298339844
          ],
          [
            490552.0,
            5468208.0,
            382.44244384765625
          ],
          [
            490584.0,
            5468200.0,
            376.423583984375
          ],
          [
            490616.0,
            5468168.0,
            371.7908020019531
          ],
          [
            490648.0,
            5468160.0,
            364.5346374511719
          ],
          [
            490680.0,
            5468144.0,
            356.9133605957031
          ],
          [
            490712.0,
            5468144.0,
            348.2703552246094
          ],
          [
            490744.0,
            5468112.0,
            336.4741516113281
          ],
          [
            490768.0,
            5468080.0,
            325.4152526855469
          ],
          [
            490792.0,
            5468048.0,
            316.3614807128906
          ],
          [
            490824.0,
            5468016.0,
            307.3404846191406
          ],
          [
            490832.0,
            5467984.0,
            304.3363037109375
          ],
          [
            490840.0,
            5467952.0,
            298.1424255371094
          ],
          [
            490848.0,
            5467920.0,
            292.9090576171875
          ],
          [
            490848.0,
            5467888.0,
            288.18096923828125
          ],
          [
            490856.0,
            5467856.0,
            280.2995910644531
          ],
          [
            490864.0,
            5467824.0,
            271.9585876464844
          ],
          [
            490880.0,
            5467792.0,
            265.0782775878906
          ],
          [
            490896.0,
            5467760.0,
            258.14471435546875
          ],
          [
            490920.0,
            5467728.0,
            252.5423126220703
          ],
          [
            490952.0,
            5467696.0,
            244.88787841796875
          ],
          [
            490976.0,
            5467664.0,
            239.45286560058594
          ],
          [
            490984.0,
            5467632.0,
            233.93804931640625
          ],
          [
            491000.0,
            5467600.0,
            228.3100128173828
          ],
          [
            491032.0,
            5467576.0,
            223.5425262451172
          ],
          [
            491064.0,
            5467560.0,
            216.4604034423828
          ],
          [
            491096.0,
            5467544.0,
            214.0576934814453
          ],
          [
            491128.0,
            5467520.0,
            208.3041534423828
          ],
          [
            491152.0,
            5467488.0,
            204.8857879638672
          ],
          [
            491152.0,
            5467456.0,
            202.9434814453125
          ],
          [
            491152.0,
            5467424.0,
            200.20550537109375
          ],
          [
            491184.0,
            5467400.0,
            197.14260864257812
          ],
          [
            491216.0,
            5467368.0,
            193.77015686035156
          ],
          [
            491240.0,
            5467336.0,
            190.07321166992188
          ],
          [
            491256.0,
            5467304.0,
            185.20565795898438
          ],
          [
            491272.0,
            5467272.0,
            176.12567138671875
          ],
          [
            491296.0,
            5467240.0,
            172.4124755859375
          ],
          [
            491312.0,
            5467208.0,
            164.08901977539062
          ],
          [
            491336.0,
            5467176.0,
            152.32986450195312
          ],
          [
            491360.0,
            5467144.0,
            146.17063903808594
          ],
          [
            491384.0,
            5467112.0,
            137.26280212402344
          ],
          [
            491408.0,
            5467080.0,
            122.50727081298828
          ],
          [
            491440.0,
            5467048.0,
            110.54035949707031
          ],
          [
            491472.0,
            5467016.0,
            98.92829132080078
          ],
          [
            491496.0,
            5466984.0,
            88.2193374633789
          ],
          [
            491520.0,
            5466952.0,
            68.11268615722656
          ],
          [
            491536.0,
            5466920.0,
            57.54413986206055
          ],
          [
            491544.0,
            5466896.0,
            55.356868743896484
          ]
        ],
        "type": "LineString"
      },
      "properties": {
        "catchment_m2": 1001152.0,
        "depth_m": 0.36020730031469383,
        "fall_m": 341.459171295166,
        "flow_m_s": 0.7730453569781981,
        "name": "Reach 5",
        "width_m": 2.0011516684149657
      },
      "type": "Feature"
    },
    {
      "geometry": {
        "coordinates": [
          [
            493040.0,
            5468168.0,
            248.73587036132812
          ],
          [
            493008.0,
            5468136.0,
            244.59793090820312
          ],
          [
            492976.0,
            5468104.0,
            239.85369873046875
          ],
          [
            492944.0,
            5468096.0,
            234.12741088867188
          ],
          [
            492912.0,
            5468096.0,
            230.12066650390625
          ]
        ],
        "type": "LineString"
      },
      "properties": {
        "catchment_m2": 409600.0,
        "depth_m": 0.35,
        "fall_m": 18.615203857421875,
        "flow_m_s": 0.6394322924797051,
        "name": "Reach 6",
        "width_m": 1.5
      },
      "type": "Feature"
    },
    {
      "geometry": {
        "coordinates": [
          [
            493960.0,
            5468080.0,
            505.81536865234375
          ],
          [
            493928.0,
            5468048.0,
            488.1974792480469
          ],
          [
            493896.0,
            5468016.0,
            458.6923522949219
          ],
          [
            493864.0,
            5467984.0,
            439.8316345214844
          ],
          [
            493832.0,
            5467952.0,
            417.03668212890625
          ],
          [
            493800.0,
            5467928.0,
            401.35247802734375
          ],
          [
            493768.0,
            5467896.0,
            388.7624816894531
          ],
          [
            493736.0,
            5467872.0,
            369.5650634765625
          ],
          [
            493704.0,
            5467848.0,
            356.579833984375
          ],
          [
            493672.0,
            5467816.0,
            337.6070556640625
          ],
          [
            493640.0,
            5467784.0,
            322.88323974609375
          ],
          [
            493608.0,
            5467752.0,
            309.82830810546875
          ],
          [
            493616.0,
            5467720.0,
            304.6247863769531
          ],
          [
            493600.0,
            5467704.0,
            302.48492431640625
          ]
        ],
        "type": "LineString"
      },
      "properties": {
        "catchment_m2": 242368.0,
        "depth_m": 0.35,
        "fall_m": 203.3304443359375,
        "flow_m_s": 1.1563660043678934,
        "name": "Reach 7",
        "width_m": 1.5
      },
      "type": "Feature"
    },
    {
      "geometry": {
        "coordinates": [
          [
            492840.0,
            5467736.0,
            203.12960815429688
          ],
          [
            492816.0,
            5467704.0,
            200.5044403076172
          ],
          [
            492784.0,
            5467672.0,
            196.4209747314453
          ],
          [
            492760.0,
            5467648.0,
            190.5601348876953
          ],
          [
            492760.0,
            5467616.0,
            187.9656982421875
          ],
          [
            492752.0,
            5467584.0,
            186.76011657714844
          ],
          [
            492752.0,
            5467552.0,
            184.266357421875
          ],
          [
            492744.0,
            5467520.0,
            182.4718780517578
          ],
          [
            492752.0,
            5467504.0,
            181.8260498046875
          ]
        ],
        "type": "LineString"
      },
      "properties": {
        "catchment_m2": 145728.0,
        "depth_m": 0.35,
        "fall_m": 21.303558349609375,
        "flow_m_s": 0.559544833088323,
        "name": "Reach 8",
        "width_m": 1.5
      },
      "type": "Feature"
    },
    {
      "geometry": {
        "coordinates": [
          [
            490704.0,
            5467728.0,
            301.2058410644531
          ],
          [
            490736.0,
            5467696.0,
            292.8341064453125
          ],
          [
            490768.0,
            5467672.0,
            283.7531433105469
          ],
          [
            490800.0,
            5467672.0,
            275.04388427734375
          ],
          [
            490832.0,
            5467672.0,
            266.697998046875
          ],
          [
            490864.0,
            5467672.0,
            259.33172607421875
          ],
          [
            490896.0,
            5467672.0,
            253.85194396972656
          ],
          [
            490928.0,
            5467656.0,
            247.46397399902344
          ],
          [
            490960.0,
            5467640.0,
            237.9929656982422
          ],
          [
            490984.0,
            5467624.0,
            233.2741241455078
          ]
        ],
        "type": "LineString"
      },
      "properties": {
        "catchment_m2": 536384.0,
        "depth_m": 0.35,
        "fall_m": 67.93171691894531,
        "flow_m_s": 0.8331642041820877,
        "name": "Reach 9",
        "width_m": 1.5
      },
      "type": "Feature"
    },
    {
      "geometry": {
        "coordinates": [
          [
            493016.0,
            5467672.0,
            210.63014221191406
          ],
          [
            492984.0,
            5467656.0,
            209.56568908691406
          ],
          [
            492952.0,
            5467624.0,
            204.66612243652344
          ],
          [
            492920.0,
            5467608.0,
            200.7935791015625
          ],
          [
            492888.0,
            5467576.0,
            197.07408142089844
          ],
          [
            492856.0,
            5467544.0,
            190.07260131835938
          ],
          [
            492824.0,
            5467536.0,
            187.868408203125
          ],
          [
            492800.0,
            5467512.0,
            185.6269989013672
          ],
          [
            492800.0,
            5467480.0,
            182.2017364501953
          ],
          [
            492808.0,
            5467448.0,
            180.0771942138672
          ],
          [
            492824.0,
            5467440.0,
            179.2327880859375
          ]
        ],
        "type": "LineString"
      },
      "properties": {
        "catchment_m2": 262080.0,
        "depth_m": 0.35,
        "fall_m": 31.397354125976562,
        "flow_m_s": 0.5758374033715625,
        "name": "Reach 10",
        "width_m": 1.5
      },
      "type": "Feature"
    },
    {
      "geometry": {
        "coordinates": [
          [
            491472.0,
            5467552.0,
            197.12496948242188
          ],
          [
            491504.0,
            5467528.0,
            195.81068420410156
          ],
          [
            491512.0,
            5467528.0,
            195.7925567626953
          ]
        ],
        "type": "LineString"
      },
      "properties": {
        "catchment_m2": 164928.0,
        "depth_m": 0.35,
        "fall_m": 1.3324127197265625,
        "flow_m_s": 0.45551719665527346,
        "name": "Reach 11",
        "width_m": 1.5
      },
      "type": "Feature"
    },
    {
      "geometry": {
        "coordinates": [
          [
            490840.0,
            5467360.0,
            235.37371826171875
          ],
          [
            490856.0,
            5467328.0,
            230.50894165039062
          ],
          [
            490856.0,
            5467296.0,
            227.00242614746094
          ],
          [
            490856.0,
            5467264.0,
            222.65663146972656
          ],
          [
            490880.0,
            5467232.0,
            218.39312744140625
          ],
          [
            490912.0,
            5467200.0,
            212.6474609375
          ],
          [
            490944.0,
            5467168.0,
            208.72576904296875
          ],
          [
            490952.0,
            5467136.0,
            207.10403442382812
          ],
          [
            490984.0,
            5467112.0,
            205.20697021484375
          ],
          [
            491000.0,
            5467080.0,
            203.9795684814453
          ],
          [
            491016.0,
            5467080.0,
            203.36526489257812
          ]
        ],
        "type": "LineString"
      },
      "properties": {
        "catchment_m2": 403392.0,
        "depth_m": 0.35,
        "fall_m": 32.008453369140625,
        "flow_m_s": 0.5803045859681382,
        "name": "Reach 12",
        "width_m": 1.5
      },
      "type": "Feature"
    },
    {
      "geometry": {
        "coordinates": [
          [
            490504.0,
            5467320.0,
            284.1845397949219
          ],
          [
            490536.0,
            5467296.0,
            276.79510498046875
          ],
          [
            490568.0,
            5467264.0,
            271.0153503417969
          ],
          [
            490600.0,
            5467232.0,
            262.3830871582031
          ],
          [
            490632.0,
            5467200.0,
            253.1578826904297
          ],
          [
            490664.0,
            5467176.0,
            246.11563110351562
          ],
          [
            490696.0,
            5467176.0,
            242.6658477783203
          ],
          [
            490728.0,
            5467176.0,
            237.45909118652344
          ],
          [
            490760.0,
            5467176.0,
            231.44969177246094
          ],
          [
            490792.0,
            5467176.0,
            225.42027282714844
          ],
          [
            490824.0,
            5467176.0,
            221.29354858398438
          ],
          [
            490856.0,
            5467160.0,
            217.10728454589844
          ],
          [
            490888.0,
            5467144.0,
            210.65956115722656
          ],
          [
            490912.0,
            5467112.0,
            208.1316375732422
          ],
          [
            490928.0,
            5467080.0,
            206.43865966796875
          ],
          [
            490944.0,
            5467048.0,
            204.3281707763672
          ],
          [
            490944.0,
            5467024.0,
            203.4200439453125
          ]
        ],
        "type": "LineString"
      },
      "properties": {
        "catchment_m2": 177792.0,
        "depth_m": 0.35,
        "fall_m": 80.76449584960938,
        "flow_m_s": 0.6771256046548697,
        "name": "Reach 13",
        "width_m": 1.5
      },
      "type": "Feature"
    },
    {
      "geometry": {
        "coordinates": [
          [
            492888.0,
            5467312.0,
            174.37156677246094
          ],
          [
            492896.0,
            5467280.0,
            173.08413696289062
          ],
          [
            492904.0,
            5467248.0,
            171.221435546875
          ],
          [
            492896.0,
            5467216.0,
            168.75424194335938
          ],
          [
            492880.0,
            5467184.0,
            167.43862915039062
          ],
          [
            492880.0,
            5467176.0,
            167.29592895507812
          ]
        ],
        "type": "LineString"
      },
      "properties": {
        "catchment_m2": 646528.0,
        "depth_m": 0.35,
        "fall_m": 7.0756378173828125,
        "flow_m_s": 0.4991460432632284,
        "name": "Reach 14",
        "width_m": 1.6081392974490736
      },
      "type": "Feature"
    },
    {
      "geometry": {
        "coordinates": [
          [
            493456.0,
            5467288.0,
            232.50660705566406
          ],
          [
            493424.0,
            5467264.0,
            227.23374938964844
          ],
          [
            493392.0,
            5467232.0,
            220.54237365722656
          ],
          [
            493360.0,
            5467224.0,
            216.30186462402344
          ],
          [
            493328.0,
            5467200.0,
            212.03253173828125
          ],
          [
            493296.0,
            5467176.0,
            205.616455078125
          ],
          [
            493264.0,
            5467152.0,
            201.42881774902344
          ],
          [
            493232.0,
            5467152.0,
            197.19065856933594
          ],
          [
            493200.0,
            5467152.0,
            192.10821533203125
          ],
          [
            493168.0,
            5467152.0,
            188.52191162109375
          ],
          [
            493136.0,
            5467152.0,
            185.76309204101562
          ],
          [
            493104.0,
            5467152.0,
            182.36183166503906
          ],
          [
            493072.0,
            5467136.0,
            180.46194458007812
          ],
          [
            493056.0,
            5467104.0,
            178.07763671875
          ],
          [
            493032.0,
            5467072.0,
            173.94720458984375
          ]
        ],
        "type": "LineString"
      },
      "properties": {
        "catchment_m2": 272832.0,
        "depth_m": 0.35,
        "fall_m": 58.55940246582031,
        "flow_m_s": 0.6297375771562626,
        "name": "Reach 15",
        "width_m": 1.5
      },
      "type": "Feature"
    },
    {
      "geometry": {
        "coordinates": [
          [
            490936.0,
            5467144.0,
            207.59242248535156
          ],
          [
            490968.0,
            5467112.0,
            205.93421936035156
          ],
          [
            490984.0,
            5467096.0,
            204.556884765625
          ]
        ],
        "type": "LineString"
      },
      "properties": {
        "catchment_m2": 288832.0,
        "depth_m": 0.35,
        "fall_m": 3.0355377197265625,
        "flow_m_s": 0.4894353877569251,
        "name": "Reach 16",
        "width_m": 1.5
      },
      "type": "Feature"
    },
    {
      "geometry": {
        "coordinates": [
          [
            493240.0,
            5467048.0,
            192.58462524414062
          ],
          [
            493208.0,
            5467032.0,
            188.9014129638672
          ],
          [
            493176.0,
            5467016.0,
            184.94798278808594
          ],
          [
            493144.0,
            5467016.0,
            178.65444946289062
          ],
          [
            493128.0,
            5466992.0,
            175.97547912597656
          ],
          [
            493128.0,
            5466960.0,
            174.4706573486328
          ],
          [
            493128.0,
            5466944.0,
            174.01148986816406
          ]
        ],
        "type": "LineString"
      },
      "properties": {
        "catchment_m2": 178624.0,
        "depth_m": 0.35,
        "fall_m": 18.573135375976562,
        "flow_m_s": 0.6059122063088928,
        "name": "Reach 17",
        "width_m": 1.5
      },
      "type": "Feature"
    },
    {
      "geometry": {
        "coordinates": [
          [
            490592.0,
            5466976.0,
            235.4300994873047
          ],
          [
            490624.0,
            5466944.0,
            231.1112518310547
          ],
          [
            490656.0,
            5466912.0,
            225.1293182373047
          ],
          [
            490688.0,
            5466880.0,
            219.44100952148438
          ],
          [
            490720.0,
            5466848.0,
            213.55526733398438
          ],
          [
            490744.0,
            5466816.0,
            210.4456329345703
          ],
          [
            490768.0,
            5466784.0,
            204.5705108642578
          ],
          [
            490752.0,
            5466752.0,
            201.35162353515625
          ],
          [
            490736.0,
            5466720.0,
            197.67108154296875
          ],
          [
            490752.0,
            5466688.0,
            195.02117919921875
          ],
          [
            490768.0,
            5466664.0,
            193.30616760253906
          ]
        ],
        "type": "LineString"
      },
      "properties": {
        "catchment_m2": 582208.0,
        "depth_m": 0.35,
        "fall_m": 42.123931884765625,
        "flow_m_s": 0.6121070553198685,
        "name": "Reach 18",
        "width_m": 1.5260511131675767
      },
      "type": "Feature"
    },
    {
      "geometry": {
        "coordinates": [
          [
            490312.0,
            5466888.0,
            261.6609191894531
          ],
          [
            490344.0,
            5466888.0,
            258.3077697753906
          ],
          [
            490376.0,
            5466888.0,
            255.22299194335938
          ],
          [
            490408.0,
            5466888.0,
            252.06219482421875
          ],
          [
            490440.0,
            5466888.0,
            247.99697875976562
          ],
          [
            490472.0,
            5466872.0,
            244.16717529296875
          ],
          [
            490504.0,
            5466872.0,
            240.70655822753906
          ],
          [
            490536.0,
            5466856.0,
            235.879150390625
          ],
          [
            490568.0,
            5466824.0,
            229.0113983154297
          ],
          [
            490600.0,
            5466792.0,
            221.04127502441406
          ],
          [
            490632.0,
            5466784.0,
            216.02310180664062
          ],
          [
            490664.0,
            5466784.0,
            212.9220733642578
          ],
          [
            490696.0,
            5466768.0,
            210.08200073242188
          ],
          [
            490728.0,
            5466736.0,
            200.36410522460938
          ],
          [
            490736.0,
            5466712.0,
            196.7380828857422
          ]
        ],
        "type": "LineString"
      },
      "properties": {
        "catchment_m2": 572032.0,
        "depth_m": 0.35,
        "fall_m": 64.92283630371094,
        "flow_m_s": 0.6631764161692226,
        "name": "Reach 19",
        "width_m": 1.512655942374207
      },
      "type": "Feature"
    },
    {
      "geometry": {
        "coordinates": [
          [
            493120.0,
            5466848.0,
            173.39352416992188
          ],
          [
            493088.0,
            5466816.0,
            170.06640625
          ],
          [
            493056.0,
            5466792.0,
            167.4742431640625
          ],
          [
            493024.0,
            5466768.0,
            165.5042266845703
          ],
          [
            493008.0,
            5466736.0,
            163.18687438964844
          ],
          [
            492984.0,
            5466720.0,
            162.62327575683594
          ],
          [
            492960.0,
            5466728.0,
            162.16552734375
          ]
        ],
        "type": "LineString"
      },
      "properties": {
        "catchment_m2": 201088.0,
        "depth_m": 0.35,
        "fall_m": 11.227996826171875,
        "flow_m_s": 0.5043617534073211,
        "name": "Reach 20",
        "width_m": 1.5
      },
      "type": "Feature"
    },
    {
      "geometry": {
        "coordinates": [
          [
            495648.0,
            5466840.0,
            530.5472412109375
          ],
          [
            495648.0,
            5466808.0,
            523.1690673828125
          ],
          [
            495656.0,
            5466776.0,
            517.0132446289062
          ],
          [
            495656.0,
            5466744.0,
            508.9857177734375
          ],
          [
            495648.0,
            5466712.0,
            500.90875244140625
          ],
          [
            495640.0,
            5466680.0,
            492.79119873046875
          ],
          [
            495640.0,
            5466648.0,
            487.12420654296875
          ],
          [
            495640.0,
            5466616.0,
            478.2102355957031
          ],
          [
            495640.0,
            5466584.0,
            470.7086486816406
          ],
          [
            495656.0,
            5466552.0,
            462.2808837890625
          ],
          [
            495656.0,
            5466520.0,
            451.5599670410156
          ],
          [
            495656.0,
            5466488.0,
            441.2244567871094
          ],
          [
            495648.0,
            5466456.0,
            429.24444580078125
          ],
          [
            495648.0,
            5466424.0,
            419.9687194824219
          ],
          [
            495648.0,
            5466392.0,
            407.8103942871094
          ],
          [
            495648.0,
            5466360.0,
            396.3465881347656
          ],
          [
            495648.0,
            5466328.0,
            385.8982849121094
          ],
          [
            495648.0,
            5466296.0,
            377.1849365234375
          ],
          [
            495648.0,
            5466264.0,
            365.76226806640625
          ],
          [
            495640.0,
            5466232.0,
            354.64703369140625
          ],
          [
            495640.0,
            5466200.0,
            346.23944091796875
          ],
          [
            495640.0,
            5466168.0,
            337.33209228515625
          ],
          [
            495640.0,
            5466136.0,
            329.3282775878906
          ],
          [
            495640.0,
            5466104.0,
            319.1805725097656
          ],
          [
            495640.0,
            5466072.0,
            307.6697998046875
          ],
          [
            495632.0,
            5466040.0,
            295.6517028808594
          ],
          [
            495632.0,
            5466008.0,
            289.7203674316406
          ],
          [
            495632.0,
            5465976.0,
            283.6064758300781
          ],
          [
            495624.0,
            5465944.0,
            277.6542053222656
          ],
          [
            495624.0,
            5465912.0,
            271.5959167480469
          ],
          [
            495624.0,
            5465880.0,
            268.47674560546875
          ],
          [
            495616.0,
            5465848.0,
            267.03955078125
          ],
          [
            495632.0,
            5465816.0,
            264.4716796875
          ],
          [
            495664.0,
            5465792.0,
            255.93829345703125
          ],
          [
            495696.0,
            5465784.0,
            250.55418395996094
          ],
          [
            495712.0,
            5465776.0,
            249.95913696289062
          ]
        ],
        "type": "LineString"
      },
      "properties": {
        "catchment_m2": 493440.0,
        "depth_m": 0.35,
        "fall_m": 280.5881042480469,
        "flow_m_s": 0.8964815258561454,
        "name": "Reach 21",
        "width_m": 1.5
      },
      "type": "Feature"
    },
    {
      "geometry": {
        "coordinates": [
          [
            490008.0,
            5466760.0,
            282.4002990722656
          ],
          [
            490040.0,
            5466728.0,
            270.2937927246094
          ],
          [
            490048.0,
            5466712.0,
            267.9906311035156
          ]
        ],
        "type": "LineString"
      },
      "properties": {
        "catchment_m2": 160256.0,
        "depth_m": 0.35,
        "fall_m": 14.40966796875,
        "flow_m_s": 0.8564110589951052,
        "name": "Reach 22",
        "width_m": 1.5
      },
      "type": "Feature"
    },
    {
      "geometry": {
        "coordinates": [
          [
            494568.0,
            5466656.0,
            324.0716552734375
          ],
          [
            494536.0,
            5466624.0,
            315.3514099121094
          ],
          [
            494504.0,
            5466592.0,
            305.7008056640625
          ],
          [
            494472.0,
            5466560.0,
            296.5858154296875
          ],
          [
            494440.0,
            5466528.0,
            285.01910400390625
          ],
          [
            494408.0,
            5466496.0,
            277.7013244628906
          ],
          [
            494408.0,
            5466464.0,
            273.0181884765625
          ],
          [
            494408.0,
            5466432.0,
            268.5843505859375
          ],
          [
            494408.0,
            5466400.0,
            263.66229248046875
          ],
          [
            494408.0,
            5466368.0,
            255.6357421875
          ],
          [
            494408.0,
            5466336.0,
            249.16061401367188
          ],
          [
            494384.0,
            5466304.0,
            245.4652099609375
          ],
          [
            494376.0,
            5466272.0,
            238.15447998046875
          ],
          [
            494392.0,
            5466240.0,
            234.38912963867188
          ],
          [
            494400.0,
            5466208.0,
            227.12098693847656
          ],
          [
            494400.0,
            5466176.0,
            221.4165802001953
          ],
          [
            494392.0,
            5466144.0,
            216.2515106201172
          ],
          [
            494392.0,
            5466112.0,
            212.8811492919922
          ],
          [
            494384.0,
            5466080.0,
            208.12945556640625
          ],
          [
            494384.0,
            5466064.0,
            207.36380004882812
          ]
        ],
        "type": "LineString"
      },
      "properties": {
        "catchment_m2": 688640.0,
        "depth_m": 0.35,
        "fall_m": 116.70785522460938,
        "flow_m_s": 0.7463189210857877,
        "name": "Reach 23",
        "width_m": 1.6596867174259122
      },
      "type": "Feature"
    },
    {
      "geometry": {
        "coordinates": [
          [
            493184.0,
            5466592.0,
            169.12974548339844
          ],
          [
            493152.0,
            5466576.0,
            167.66815185546875
          ],
          [
            493120.0,
            5466560.0,
            164.63067626953125
          ],
          [
            493088.0,
            5466552.0,
            162.55764770507812
          ],
          [
            493056.0,
            5466552.0,
            161.27784729003906
          ],
          [
            493024.0,
            5466552.0,
            159.2082977294922
          ],
          [
            492992.0,
            5466552.0,
            155.8264923095703
          ],
          [
            492968.0,
            5466544.0,
            153.96112060546875
          ]
        ],
        "type": "LineString"
      },
      "properties": {
        "catchment_m2": 139904.0,
        "depth_m": 0.35,
        "fall_m": 15.168624877929688,
        "flow_m_s": 0.5343323605329975,
        "name": "Reach 24",
        "width_m": 1.5
      },
      "type": "Feature"
    },
    {
      "geometry": {
        "coordinates": [
          [
            494424.0,
            5466440.0,
            270.11346435546875
          ],
          [
            494424.0,
            5466408.0,
            265.4647216796875
          ],
          [
            494424.0,
            5466376.0,
            258.4078369140625
          ],
          [
            494424.0,
            5466344.0,
            251.5853729248047
          ],
          [
            494408.0,
            5466328.0,
            248.24179077148438
          ]
        ],
        "type": "LineString"
      },
      "properties": {
        "catchment_m2": 339840.0,
        "depth_m": 0.35,
        "fall_m": 21.871673583984375,
        "flow_m_s": 0.7687456768001404,
        "name": "Reach 25",
        "width_m": 1.5
      },
      "type": "Feature"
    },
    {
      "geometry": {
        "coordinates": [
          [
            494392.0,
            5466432.0,
            267.9378356933594
          ],
          [
            494360.0,
            5466400.0,
            260.6546325683594
          ],
          [
            494344.0,
            5466368.0,
            252.44122314453125
          ],
          [
            494328.0,
            5466336.0,
            247.28732299804688
          ],
          [
            494312.0,
            5466304.0,
            241.26669311523438
          ],
          [
            494312.0,
            5466272.0,
            236.72544860839844
          ],
          [
            494304.0,
            5466240.0,
            232.7840118408203
          ],
          [
            494280.0,
            5466208.0,
            228.4246826171875
          ],
          [
            494248.0,
            5466176.0,
            221.17445373535156
          ],
          [
            494224.0,
            5466144.0,
            214.4673309326172
          ],
          [
            494192.0,
            5466112.0,
            208.31454467773438
          ],
          [
            494160.0,
            5466080.0,
            202.45306396484375
          ],
          [
            494144.0,
            5466048.0,
            197.66221618652344
          ],
          [
            494144.0,
            5466016.0,
            195.08326721191406
          ],
          [
            494144.0,
            5465984.0,
            193.19927978515625
          ],
          [
            494144.0,
            5465952.0,
            188.439453125
          ],
          [
            494144.0,
            5465920.0,
            183.0891876220703
          ],
          [
            494152.0,
            5465888.0,
            179.57122802734375
          ]
        ],
        "type": "LineString"
      },
      "properties": {
        "catchment_m2": 393216.0,
        "depth_m": 0.35,
        "fall_m": 88.36660766601562,
        "flow_m_s": 0.6804855597061673,
        "name": "Reach 26",
        "width_m": 1.5
      },
      "type": "Feature"
    },
    {
      "geometry": {
        "coordinates": [
          [
            493888.0,
            5466408.0,
            211.9313507080078
          ],
          [
            493856.0,
            5466376.0,
            206.65057373046875
          ],
          [
            493824.0,
            5466352.0,
            201.5785675048828
          ],
          [
            493824.0,
            5466320.0,
            199.9468231201172
          ],
          [
            493824.0,
            5466288.0,
            197.59156799316406
          ],
          [
            493800.0,
            5466256.0,
            195.61044311523438
          ],
          [
            493768.0,
            5466240.0,
            190.86334228515625
          ],
          [
            493736.0,
            5466224.0,
            186.0758514404297
          ],
          [
            493704.0,
            5466200.0,
            179.3372802734375
          ],
          [
            493688.0,
            5466184.0,
            175.80213928222656
          ]
        ],
        "type": "LineString"
      },
      "properties": {
        "catchment_m2": 2239680.0,
        "depth_m": 0.5387601767020276,
        "fall_m": 36.12921142578125,
        "flow_m_s": 0.6234084258350373,
        "name": "Reach 27",
        "width_m": 2.9931120927890422
      },
      "type": "Feature"
    },
    {
      "geometry": {
        "coordinates": [
          [
            494472.0,
            5466176.0,
            235.1114044189453
          ],
          [
            494440.0,
            5466152.0,
            227.99998474121094
          ],
          [
            494408.0,
            5466144.0,
            218.58065795898438
          ],
          [
            494392.0,
            5466128.0,
            214.36685180664062
          ]
        ],
        "type": "LineString"
      },
      "properties": {
        "catchment_m2": 652928.0,
        "depth_m": 0.35,
        "fall_m": 20.744552612304688,
        "flow_m_s": 0.8339307987854767,
        "name": "Reach 28",
        "width_m": 1.616079205979707
      },
      "type": "Feature"
    },
    {
      "geometry": {
        "coordinates": [
          [
            489760.0,
            5466160.0,
            208.802490234375
          ],
          [
            489760.0,
            5466128.0,
            206.52468872070312
          ],
          [
            489760.0,
            5466096.0,
            200.66616821289062
          ],
          [
            489776.0,
            5466064.0,
            194.2113494873047
          ],
          [
            489784.0,
            5466032.0,
            189.27239990234375
          ],
          [
            489784.0,
            5466000.0,
            186.85595703125
          ],
          [
            489792.0,
            5465968.0,
            181.21998596191406
          ],
          [
            489784.0,
            5465936.0,
            174.68240356445312
          ],
          [
            489784.0,
            5465904.0,
            171.64654541015625
          ],
          [
            489792.0,
            5465872.0,
            168.76461791992188
          ],
          [
            489784.0,
            5465840.0,
            161.97988891601562
          ],
          [
            489776.0,
            5465808.0,
            155.6031036376953
          ],
          [
            489768.0,
            5465776.0,
            151.06585693359375
          ],
          [
            489760.0,
            5465744.0,
            147.8203125
          ],
          [
            489744.0,
            5465712.0,
            144.10296630859375
          ],
          [
            489736.0,
            5465680.0,
            138.28749084472656
          ],
          [
            489744.0,
            5465648.0,
            134.70379638671875
          ],
          [
            489752.0,
            5465616.0,
            131.04905700683594
          ],
          [
            489768.0,
            5465584.0,
            124.68283081054688
          ],
          [
            489784.0,
            5465552.0,
            120.06800842285156
          ],
          [
            489792.0,
            5465520.0,
            114.44439697265625
          ],
          [
            489808.0,
            5465488.0,
            108.673828125
          ],
          [
            489816.0,
            5465456.0,
            104.31503295898438
          ],
          [
            489824.0,
            5465424.0,
            103.01658630371094
          ],
          [
            489840.0,
            5465392.0,
            97.95026397705078
          ],
          [
            489848.0,
            5465360.0,
            93.87738037109375
          ],
          [
            489848.0,
            5465328.0,
            91.6871566772461
          ],
          [
            489848.0,
            5465296.0,
            90.09868621826172
          ],
          [
            489856.0,
            5465264.0,
            87.52117919921875
          ],
          [
            489864.0,
            5465264.0,
            87.5067138671875
          ]
        ],
        "type": "LineString"
      },
      "properties": {
        "catchment_m2": 759360.0,
        "depth_m": 0.35,
        "fall_m": 121.2957763671875,
        "flow_m_s": 0.6574134047602964,
        "name": "Reach 29",
        "width_m": 1.7428252924490166
      },
      "type": "Feature"
    },
    {
      "geometry": {
        "coordinates": [
          [
            494816.0,
            5466152.0,
            288.90692138671875
          ],
          [
            494784.0,
            5466120.0,
            283.1943664550781
          ],
          [
            494752.0,
            5466088.0,
            277.5432434082031
          ],
          [
            494720.0,
            5466072.0,
            272.80126953125
          ],
          [
            494688.0,
            5466040.0,
            266.55938720703125
          ],
          [
            494656.0,
            5466040.0,
            259.4126892089844
          ],
          [
            494624.0,
            5466024.0,
            252.78887939453125
          ],
          [
            494592.0,
            5465992.0,
            243.6345977783203
          ],
          [
            494560.0,
            5465960.0,
            233.8382568359375
          ],
          [
            494528.0,
            5465928.0,
            225.60247802734375
          ],
          [
            494496.0,
            5465896.0,
            217.26222229003906
          ],
          [
            494464.0,
            5465864.0,
            208.28111267089844
          ],
          [
            494432.0,
            5465840.0,
            203.30535888671875
          ],
          [
            494400.0,
            5465832.0,
            198.5120849609375
          ],
          [
            494368.0,
            5465824.0,
            196.78485107421875
          ],
          [
            494336.0,
            5465824.0,
            194.42156982421875
          ],
          [
            494304.0,
            5465800.0,
            189.2450714111328
          ],
          [
            494280.0,
            5465768.0,
            186.50527954101562
          ],
          [
            494248.0,
            5465744.0,
            179.54722595214844
          ],
          [
            494216.0,
            5465712.0,
            172.7687225341797
          ],
          [
            494184.0,
            5465704.0,
            167.38963317871094
          ],
          [
            494152.0,
            5465680.0,
            164.94036865234375
          ],
          [
            494128.0,
            5465672.0,
            163.54025268554688
          ]
        ],
        "type": "LineString"
      },
      "properties": {
        "catchment_m2": 402816.0,
        "depth_m": 0.35,
        "fall_m": 125.36666870117188,
        "flow_m_s": 0.6891629695330288,
        "name": "Reach 30",
        "width_m": 1.5
      },
      "type": "Feature"
    },
    {
      "geometry": {
        "coordinates": [
          [
            494128.0,
            5466064.0,
            198.32301330566406
          ],
          [
            494144.0,
            5466048.0,
            197.66221618652344
          ]
        ],
        "type": "LineString"
      },
      "properties": {
        "catchment_m2": 293504.0,
        "depth_m": 0.35,
        "fall_m": 0.660797119140625,
        "flow_m_s": 0.45840676549160886,
        "name": "Reach 31",
        "width_m": 1.5
      },
      "type": "Feature"
    },
    {
      "geometry": {
        "coordinates": [
          [
            495464.0,
            5466064.0,
            322.63494873046875
          ],
          [
            495464.0,
            5466032.0,
            314.7379150390625
          ],
          [
            495464.0,
            5466000.0,
            307.90338134765625
          ],
          [
            495464.0,
            5465968.0,
            300.5652160644531
          ],
          [
            495464.0,
            5465936.0,
            292.775146484375
          ],
          [
            495472.0,
            5465904.0,
            286.4225769042969
          ],
          [
            495504.0,
            5465872.0,
            278.8912658691406
          ],
          [
            495536.0,
            5465840.0,
            270.0491638183594
          ],
          [
            495544.0,
            5465808.0,
            266.0775451660156
          ],
          [
            495552.0,
            5465776.0,
            262.36590576171875
          ],
          [
            495584.0,
            5465744.0,
            254.60069274902344
          ],
          [
            495584.0,
            5465736.0,
            254.2487335205078
          ]
        ],
        "type": "LineString"
      },
      "properties": {
        "catchment_m2": 219264.0,
        "depth_m": 0.35,
        "fall_m": 68.38621520996094,
        "flow_m_s": 0.7689382437054277,
        "name": "Reach 32",
        "width_m": 1.5
      },
      "type": "Feature"
    },
    {
      "geometry": {
        "coordinates": [
          [
            489576.0,
            5465816.0,
            163.46527099609375
          ],
          [
            489600.0,
            5465784.0,
            159.50128173828125
          ],
          [
            489632.0,
            5465776.0,
            156.90269470214844
          ],
          [
            489664.0,
            5465768.0,
            153.2293243408203
          ],
          [
            489696.0,
            5465736.0,
            147.5062255859375
          ],
          [
            489712.0,
            5465704.0,
            144.57301330566406
          ],
          [
            489736.0,
            5465680.0,
            138.28749084472656
          ]
        ],
        "type": "LineString"
      },
      "properties": {
        "catchment_m2": 485376.0,
        "depth_m": 0.35,
        "fall_m": 25.177780151367188,
        "flow_m_s": 0.627912267920329,
        "name": "Reach 33",
        "width_m": 1.5
      },
      "type": "Feature"
    },
    {
      "geometry": {
        "coordinates": [
          [
            494504.0,
            5465712.0,
            203.7897186279297
          ],
          [
            494472.0,
            5465712.0,
            200.60302734375
          ],
          [
            494440.0,
            5465712.0,
            196.47125244140625
          ],
          [
            494408.0,
            5465696.0,
            192.0655517578125
          ],
          [
            494384.0,
            5465664.0,
            187.90020751953125
          ],
          [
            494376.0,
            5465632.0,
            185.1379852294922
          ],
          [
            494344.0,
            5465608.0,
            181.8155059814453
          ],
          [
            494312.0,
            5465608.0,
            179.27120971679688
          ],
          [
            494280.0,
            5465608.0,
            176.46226501464844
          ],
          [
            494248.0,
            5465576.0,
            171.88638305664062
          ],
          [
            494232.0,
            5465544.0,
            166.8744659423828
          ],
          [
            494216.0,
            5465512.0,
            161.5440216064453
          ],
          [
            494216.0,
            5465480.0,
            159.32069396972656
          ],
          [
            494216.0,
            5465448.0,
            156.48875427246094
          ],
          [
            494208.0,
            5465416.0,
            154.02777099609375
          ],
          [
            494208.0,
            5465384.0,
            153.24964904785156
          ],
          [
            494176.0,
            5465352.0,
            151.66627502441406
          ],
          [
            494144.0,
            5465352.0,
            150.7591552734375
          ],
          [
            494112.0,
            5465352.0,
            150.53207397460938
          ],
          [
            494088.0,
            5465328.0,
            150.5065460205078
          ],
          [
            494056.0,
            5465296.0,
            149.90122985839844
          ],
          [
            494024.0,
            5465264.0,
            147.67697143554688
          ],
          [
            493992.0,
            5465240.0,
            143.16065979003906
          ],
          [
            493960.0,
            5465232.0,
            139.60540771484375
          ],
          [
            493928.0,
            5465200.0,
            135.07305908203125
          ],
          [
            493912.0,
            5465168.0,
            131.69020080566406
          ],
          [
            493888.0,
            5465144.0,
            130.46377563476562
          ],
          [
            493856.0,
            5465128.0,
            128.2725830078125
          ],
          [
            493824.0,
            5465096.0,
            124.20469665527344
          ],
          [
            493824.0,
            5465064.0,
            122.09062957763672
          ],
          [
            493808.0,
            5465032.0,
            121.19308471679688
          ],
          [
            493808.0,
            5465000.0,
            118.08161163330078
          ],
          [
            493808.0,
            5464968.0,
            115.314453125
          ],
          [
            493800.0,
            5464936.0,
            113.62797546386719
          ],
          [
            493800.0,
            5464904.0,
            111.58226776123047
          ],
          [
            493808.0,
            5464872.0,
            107.87281036376953
          ],
          [
            493792.0,
            5464840.0,
            106.78398132324219
          ]
        ],
        "type": "LineString"
      },
      "properties": {
        "catchment_m2": 504512.0,
        "depth_m": 0.35,
        "fall_m": 97.0057373046875,
        "flow_m_s": 0.5503061808290532,
        "name": "Reach 34",
        "width_m": 1.5
      },
      "type": "Feature"
    },
    {
      "geometry": {
        "coordinates": [
          [
            490864.0,
            5465344.0,
            110.79154968261719
          ],
          [
            490864.0,
            5465312.0,
            108.02252960205078
          ],
          [
            490864.0,
            5465280.0,
            102.83177947998047
          ],
          [
            490864.0,
            5465248.0,
            100.62124633789062
          ],
          [
            490856.0,
            5465216.0,
            98.51126861572266
          ],
          [
            490848.0,
            5465184.0,
            95.57135772705078
          ],
          [
            490848.0,
            5465152.0,
            91.25405883789062
          ],
          [
            490848.0,
            5465120.0,
            88.2555923461914
          ],
          [
            490832.0,
            5465088.0,
            85.2929916381836
          ],
          [
            490816.0,
            5465056.0,
            82.7283706665039
          ],
          [
            490816.0,
            5465024.0,
            80.4834976196289
          ],
          [
            490816.0,
            5464992.0,
            76.76830291748047
          ],
          [
            490816.0,
            5464960.0,
            75.10786437988281
          ],
          [
            490816.0,
            5464928.0,
            72.46354675292969
          ],
          [
            490808.0,
            5464896.0,
            70.4966812133789
          ],
          [
            490816.0,
            5464864.0,
            69.3170394897461
          ],
          [
            490816.0,
            5464856.0,
            69.27001190185547
          ]
        ],
        "type": "LineString"
      },
      "properties": {
        "catchment_m2": 254848.0,
        "depth_m": 0.35,
        "fall_m": 41.52153778076172,
        "flow_m_s": 0.566254548593099,
        "name": "Reach 35",
        "width_m": 1.5
      },
      "type": "Feature"
    },
    {
      "geometry": {
        "coordinates": [
          [
            490152.0,
            5465272.0,
            93.21662902832031
          ],
          [
            490144.0,
            5465240.0,
            90.340576171875
          ],
          [
            490136.0,
            5465208.0,
            88.64433288574219
          ],
          [
            490128.0,
            5465176.0,
            86.39154052734375
          ],
          [
            490128.0,
            5465144.0,
            85.13252258300781
          ],
          [
            490128.0,
            5465112.0,
            83.2548828125
          ],
          [
            490144.0,
            5465080.0,
            80.63289642333984
          ],
          [
            490144.0,
            5465056.0,
            79.3997802734375
          ]
        ],
        "type": "LineString"
      },
      "properties": {
        "catchment_m2": 137984.0,
        "depth_m": 0.35,
        "fall_m": 13.816848754882812,
        "flow_m_s": 0.5240672392199607,
        "name": "Reach 36",
        "width_m": 1.5
      },
      "type": "Feature"
    },
    {
      "geometry": {
        "coordinates": [
          [
            493256.0,
            5465184.0,
            100.5897445678711
          ],
          [
            493248.0,
            5465152.0,
            98.65176391601562
          ],
          [
            493240.0,
            5465120.0,
            96.6194839477539
          ],
          [
            493232.0,
            5465088.0,
            94.74207305908203
          ],
          [
            493232.0,
            5465080.0,
            94.65074157714844
          ]
        ],
        "type": "LineString"
      },
      "properties": {
        "catchment_m2": 134848.0,
        "depth_m": 0.35,
        "fall_m": 5.939002990722656,
        "flow_m_s": 0.5110565903521438,
        "name": "Reach 37",
        "width_m": 1.5
      },
      "type": "Feature"
    },
    {
      "geometry": {
        "coordinates": [
          [
            490280.0,
            5465160.0,
            77.78707122802734
          ],
          [
            490280.0,
            5465128.0,
            76.97367095947266
          ],
          [
            490280.0,
            5465096.0,
            75.06623077392578
          ],
          [
            490272.0,
            5465064.0,
            73.68872833251953
          ]
        ],
        "type": "LineString"
      },
      "properties": {
        "catchment_m2": 143232.0,
        "depth_m": 0.35,
        "fall_m": 4.0983428955078125,
        "flow_m_s": 0.4845151197653408,
        "name": "Reach 38",
        "width_m": 1.5
      },
      "type": "Feature"
    },
    {
      "geometry": {
        "coordinates": [
          [
            494376.0,
            5465160.0,
            163.96263122558594
          ],
          [
            494368.0,
            5465128.0,
            162.56698608398438
          ],
          [
            494344.0,
            5465096.0,
            159.72903442382812
          ],
          [
            494312.0,
            5465072.0,
            154.75526428222656
          ],
          [
            494288.0,
            5465040.0,
            153.19129943847656
          ],
          [
            494288.0,
            5465008.0,
            152.4454803466797
          ],
          [
            494264.0,
            5464976.0,
            150.27003479003906
          ],
          [
            494232.0,
            5464968.0,
            146.43798828125
          ],
          [
            494200.0,
            5464968.0,
            141.70143127441406
          ],
          [
            494168.0,
            5464976.0,
            140.08721923828125
          ],
          [
            494136.0,
            5464976.0,
            136.83169555664062
          ],
          [
            494104.0,
            5464976.0,
            134.73468017578125
          ],
          [
            494072.0,
            5464976.0,
            131.54647827148438
          ],
          [
            494040.0,
            5464968.0,
            128.80076599121094
          ],
          [
            494016.0,
            5464936.0,
            128.11865234375
          ],
          [
            494008.0,
            5464904.0,
            125.14571380615234
          ],
          [
            493976.0,
            5464872.0,
            121.62671661376953
          ],
          [
            493944.0,
            5464864.0,
            118.2110824584961
          ],
          [
            493912.0,
            5464856.0,
            115.4470443725586
          ],
          [
            493880.0,
            5464848.0,
            112.5487060546875
          ],
          [
            493864.0,
            5464824.0,
            111.08135986328125
          ],
          [
            493848.0,
            5464792.0,
            107.64197540283203
          ],
          [
            493816.0,
            5464768.0,
            105.12957763671875
          ],
          [
            493784.0,
            5464760.0,
            101.14572143554688
          ],
          [
            493752.0,
            5464768.0,
            100.34127044677734
          ],
          [
            493728.0,
            5464744.0,
            98.133056640625
          ]
        ],
        "type": "LineString"
      },
      "properties": {
        "catchment_m2": 291520.0,
        "depth_m": 0.35,
        "fall_m": 65.82957458496094,
        "flow_m_s": 0.5506973638971934,
        "name": "Reach 39",
        "width_m": 1.5
      },
      "type": "Feature"
    },
    {
      "geometry": {
        "coordinates": [
          [
            493488.0,
            5465112.0,
            110.12979125976562
          ],
          [
            493456.0,
            5465088.0,
            109.40564727783203
          ],
          [
            493424.0,
            5465088.0,
            106.7340316772461
          ],
          [
            493392.0,
            5465064.0,
            104.39232635498047
          ],
          [
            493392.0,
            5465032.0,
            103.13005828857422
          ],
          [
            493400.0,
            5465000.0,
            101.92741394042969
          ],
          [
            493392.0,
            5464968.0,
            99.78678894042969
          ],
          [
            493392.0,
            5464936.0,
            98.79711151123047
          ],
          [
            493392.0,
            5464904.0,
            97.0731201171875
          ],
          [
            493360.0,
            5464880.0,
            95.26827239990234
          ],
          [
            493328.0,
            5464856.0,
            91.9113540649414
          ],
          [
            493304.0,
            5464824.0,
            90.19744873046875
          ],
          [
            493288.0,
            5464792.0,
            88.01921844482422
          ],
          [
            493280.0,
            5464760.0,
            85.76853942871094
          ],
          [
            493280.0,
            5464728.0,
            84.46244812011719
          ],
          [
            493248.0,
            5464696.0,
            80.85895538330078
          ],
          [
            493216.0,
            5464664.0,
            76.73585510253906
          ],
          [
            493224.0,
            5464632.0,
            72.61199188232422
          ],
          [
            493240.0,
            5464600.0,
            70.26890563964844
          ]
        ],
        "type": "LineString"
      },
      "properties": {
        "catchment_m2": 204096.0,
        "depth_m": 0.35,
        "fall_m": 39.86088562011719,
        "flow_m_s": 0.5218981319984786,
        "name": "Reach 40",
        "width_m": 1.5
      },
      "type": "Feature"
    },
    {
      "geometry": {
        "coordinates": [
          [
            494904.0,
            5465080.0,
            193.96978759765625
          ],
          [
            494872.0,
            5465048.0,
            189.33108520507812
          ],
          [
            494840.0,
            5465016.0,
            184.27757263183594
          ],
          [
            494840.0,
            5464984.0,
            179.9820556640625
          ],
          [
            494816.0,
            5464960.0,
            178.7971954345703
          ],
          [
            494784.0,
            5464928.0,
            173.6047821044922
          ],
          [
            494768.0,
            5464896.0,
            170.6820526123047
          ],
          [
            494768.0,
            5464864.0,
            168.38595581054688
          ],
          [
            494768.0,
            5464832.0,
            165.4813232421875
          ],
          [
            494776.0,
            5464800.0,
            162.85562133789062
          ],
          [
            494760.0,
            5464768.0,
            160.77223205566406
          ],
          [
            494760.0,
            5464736.0,
            157.87503051757812
          ],
          [
            494760.0,
            5464704.0,
            156.62615966796875
          ],
          [
            494760.0,
            5464672.0,
            153.9850616455078
          ],
          [
            494760.0,
            5464640.0,
            151.1864471435547
          ],
          [
            494760.0,
            5464608.0,
            149.05731201171875
          ],
          [
            494728.0,
            5464600.0,
            147.84097290039062
          ],
          [
            494696.0,
            5464600.0,
            146.7080841064453
          ],
          [
            494664.0,
            5464576.0,
            143.19085693359375
          ],
          [
            494656.0,
            5464544.0,
            141.03236389160156
          ],
          [
            494656.0,
            5464512.0,
            138.1703643798828
          ],
          [
            494656.0,
            5464480.0,
            136.23074340820312
          ],
          [
            494656.0,
            5464448.0,
            134.32070922851562
          ],
          [
            494656.0,
            5464416.0,
            133.08673095703125
          ],
          [
            494648.0,
            5464384.0,
            130.17095947265625
          ],
          [
            494656.0,
            5464352.0,
            128.35667419433594
          ],
          [
            494656.0,
            5464320.0,
            126.32844543457031
          ],
          [
            494656.0,
            5464288.0,
            124.17753601074219
          ],
          [
            494656.0,
            5464256.0,
            121.86199951171875
          ],
          [
            494664.0,
            5464224.0,
            117.78114318847656
          ],
          [
            494664.0,
            5464192.0,
            115.84954071044922
          ],
          [
            494632.0,
            5464160.0,
            113.59874725341797
          ],
          [
            494600.0,
            5464128.0,
            111.26225280761719
          ],
          [
            494568.0,
            5464104.0,
            109.91329956054688
          ],
          [
            494536.0,
            5464104.0,
            109.11661529541016
          ],
          [
            494504.0,
            5464104.0,
            106.0975341796875
          ],
          [
            494472.0,
            5464072.0,
            104.364990234375
          ],
          [
            494440.0,
            5464040.0,
            102.13960266113281
          ],
          [
            494408.0,
            5464040.0,
            100.79393768310547
          ],
          [
            494376.0,
            5464032.0,
            99.39111328125
          ],
          [
            494344.0,
            5464000.0,
            97.6722183227539
          ],
          [
            494336.0,
            5463976.0,
            96.4776840209961
          ]
        ],
        "type": "LineString"
      },
      "properties": {
        "catchment_m2": 341824.0,
        "depth_m": 0.35,
        "fall_m": 97.49210357666016,
        "flow_m_s": 0.5350562311851657,
        "name": "Reach 41",
        "width_m": 1.5
      },
      "type": "Feature"
    },
    {
      "geometry": {
        "coordinates": [
          [
            489920.0,
            5464976.0,
            83.52877044677734
          ],
          [
            489952.0,
            5464976.0,
            83.14634704589844
          ],
          [
            489960.0,
            5464976.0,
            83.13252258300781
          ]
        ],
        "type": "LineString"
      },
      "properties": {
        "catchment_m2": 161664.0,
        "depth_m": 0.35,
        "fall_m": 0.39624786376953125,
        "flow_m_s": 0.4198123931884766,
        "name": "Reach 42",
        "width_m": 1.5
      },
      "type": "Feature"
    },
    {
      "geometry": {
        "coordinates": [
          [
            495064.0,
            5464688.0,
            163.9986572265625
          ],
          [
            495032.0,
            5464656.0,
            161.14051818847656
          ],
          [
            495000.0,
            5464624.0,
            156.6068115234375
          ],
          [
            495000.0,
            5464592.0,
            153.84060668945312
          ],
          [
            495000.0,
            5464560.0,
            151.09202575683594
          ],
          [
            495000.0,
            5464528.0,
            149.32789611816406
          ],
          [
            495000.0,
            5464496.0,
            146.60711669921875
          ],
          [
            495000.0,
            5464464.0,
            144.90235900878906
          ],
          [
            494992.0,
            5464432.0,
            142.79495239257812
          ],
          [
            494976.0,
            5464400.0,
            140.5083465576172
          ],
          [
            494960.0,
            5464368.0,
            137.87059020996094
          ],
          [
            494944.0,
            5464336.0,
            136.5059814453125
          ],
          [
            494928.0,
            5464304.0,
            134.8812713623047
          ],
          [
            494896.0,
            5464280.0,
            132.90240478515625
          ],
          [
            494864.0,
            5464264.0,
            131.77500915527344
          ],
          [
            494832.0,
            5464240.0,
            130.2176513671875
          ],
          [
            494808.0,
            5464208.0,
            125.15656280517578
          ],
          [
            494792.0,
            5464176.0,
            121.33062744140625
          ],
          [
            494768.0,
            5464144.0,
            119.6476821899414
          ],
          [
            494752.0,
            5464112.0,
            117.22258758544922
          ],
          [
            494728.0,
            5464080.0,
            114.43086242675781
          ],
          [
            494728.0,
            5464048.0,
            112.99898529052734
          ],
          [
            494696.0,
            5464016.0,
            111.59896087646484
          ],
          [
            494688.0,
            5463984.0,
            110.32879638671875
          ],
          [
            494672.0,
            5463952.0,
            109.54307556152344
          ],
          [
            494640.0,
            5463928.0,
            109.4253921508789
          ],
          [
            494608.0,
            5463904.0,
            109.24998474121094
          ],
          [
            494576.0,
            5463904.0,
            109.04068756103516
          ],
          [
            494544.0,
            5463872.0,
            108.60420227050781
          ],
          [
            494512.0,
            5463864.0,
            107.85140991210938
          ],
          [
            494480.0,
            5463864.0,
            106.26435089111328
          ],
          [
            494448.0,
            5463864.0,
            103.62083435058594
          ],
          [
            494416.0,
            5463864.0,
            100.23970031738281
          ],
          [
            494384.0,
            5463864.0,
            96.54401397705078
          ],
          [
            494352.0,
            5463848.0,
            94.0584487915039
          ],
          [
            494320.0,
            5463832.0,
            92.65316772460938
          ],
          [
            494312.0,
            5463832.0,
            92.58133697509766
          ]
        ],
        "type": "LineString"
      },
      "properties": {
        "catchment_m2": 599360.0,
        "depth_m": 0.35,
        "fall_m": 71.41732025146484,
        "flow_m_s": 0.5117865213640965,
        "name": "Reach 43",
        "width_m": 1.548366881588469
      },
      "type": "Feature"
    },
    {
      "geometry": {
        "coordinates": [
          [
            494224.0,
            5464488.0,
            120.67558288574219
          ],
          [
            494192.0,
            5464488.0,
            118.43951416015625
          ],
          [
            494160.0,
            5464488.0,
            116.30180358886719
          ],
          [
            494128.0,
            5464480.0,
            112.70474243164062
          ],
          [
            494096.0,
            5464480.0,
            108.50776672363281
          ],
          [
            494072.0,
            5464448.0,
            106.7671890258789
          ],
          [
            494040.0,
            5464416.0,
            102.28196716308594
          ],
          [
            494008.0,
            5464392.0,
            99.94377899169922
          ],
          [
            493976.0,
            5464392.0,
            97.12028503417969
          ],
          [
            493944.0,
            5464392.0,
            94.89654541015625
          ],
          [
            493912.0,
            5464392.0,
            92.51410675048828
          ],
          [
            493880.0,
            5464392.0,
            91.07494354248047
          ],
          [
            493848.0,
            5464384.0,
            90.05235290527344
          ],
          [
            493816.0,
            5464384.0,
            88.49247741699219
          ],
          [
            493784.0,
            5464392.0,
            87.24979400634766
          ],
          [
            493752.0,
            5464392.0,
            86.2640151977539
          ],
          [
            493744.0,
            5464392.0,
            86.24351501464844
          ]
        ],
        "type": "LineString"
      },
      "properties": {
        "catchment_m2": 262976.0,
        "depth_m": 0.35,
        "fall_m": 34.43206787109375,
        "flow_m_s": 0.532377730668597,
        "name": "Reach 44",
        "width_m": 1.5
      },
      "type": "Feature"
    },
    {
      "geometry": {
        "coordinates": [
          [
            490160.0,
            5464088.0,
            25.387840270996094
          ],
          [
            490144.0,
            5464056.0,
            19.17340850830078
          ],
          [
            490112.0,
            5464024.0,
            16.77817726135254
          ],
          [
            490080.0,
            5464000.0,
            14.872251510620117
          ],
          [
            490048.0,
            5463984.0,
            14.049976348876953
          ],
          [
            490048.0,
            5463976.0,
            14.003743171691895
          ]
        ],
        "type": "LineString"
      },
      "properties": {
        "catchment_m2": 213248.0,
        "depth_m": 0.35,
        "fall_m": 11.3840970993042,
        "flow_m_s": 0.5381489658765477,
        "name": "Reach 45",
        "width_m": 1.5
      },
      "type": "Feature"
    },
    {
      "geometry": {
        "coordinates": [
          [
            494400.0,
            5463856.0,
            98.5492172241211
          ],
          [
            494368.0,
            5463856.0,
            95.50462341308594
          ]
        ],
        "type": "LineString"
      },
      "properties": {
        "catchment_m2": 518016.0,
        "depth_m": 0.35,
        "fall_m": 3.0445938110351562,
        "flow_m_s": 0.5902871131896973,
        "name": "Reach 46",
        "width_m": 1.5
      },
      "type": "Feature"
    },
    {
      "geometry": {
        "coordinates": [
          [
            490848.0,
            5463456.0,
            15.642024040222168
          ],
          [
            490832.0,
            5463440.0,
            15.624288558959961
          ]
        ],
        "type": "LineString"
      },
      "properties": {
        "catchment_m2": 127232.0,
        "depth_m": 0.35,
        "fall_m": 0.01773548126220703,
        "flow_m_s": 0.4015676098835142,
        "name": "Reach 47",
        "width_m": 1.5
      },
      "type": "Feature"
    },
    {
      "geometry": {
        "coordinates": [
          [
            493544.0,
            5463120.0,
            27.31814193725586
          ],
          [
            493520.0,
            5463096.0,
            24.079601287841797
          ]
        ],
        "type": "LineString"
      },
      "properties": {
        "catchment_m2": 124224.0,
        "depth_m": 0.35,
        "fall_m": 3.2385406494140625,
        "flow_m_s": 0.5908328378624141,
        "name": "Reach 48",
        "width_m": 1.5
      },
      "type": "Feature"
    },
    {
      "geometry": {
        "coordinates": [
          [
            493456.0,
            5463008.0,
            19.115554809570312
          ],
          [
            493456.0,
            5462976.0,
            18.401762008666992
          ]
        ],
        "type": "LineString"
      },
      "properties": {
        "catchment_m2": 141376.0,
        "depth_m": 0.35,
        "fall_m": 0.7137928009033203,
        "flow_m_s": 0.44461205005645754,
        "name": "Reach 49",
        "width_m": 1.5
      },
      "type": "Feature"
    }
  ],
  "name": "streams derived from flow accumulation over the carved ground",
  "type": "FeatureCollection"
}
